{
  "type": "FeatureCollection",
  "features": [
    {
      "type": "Feature",
      "properties": {
        "norad_id": 66561,
        "name": "STARLINK-35305",
        "group": "last-30-days",
        "lat": -42.912010725412834,
        "lon": -52.814133274928885,
        "alt_km": 458.22731855880465,
        "timestamp": "2025-12-27T18:38:02.201563+00:00",
        "meta_object_name": "STARLINK-35305",
        "meta_object_id": "2025-268E",
        "meta_epoch": "2025-12-27T12:00:02.000160",
        "meta_mean_motion": 15.38005627,
        "meta_eccentricity": 9.93e-05,
        "meta_inclination": 43.0006,
        "meta_ra_of_asc_node": 34.8085,
        "meta_arg_of_pericenter": 296.1778,
        "meta_mean_anomaly": 245.2046,
        "meta_ephemeris_type": 0,
        "meta_classification_type": "U",
        "meta_norad_cat_id": 66561,
        "meta_element_set_no": 999,
        "meta_rev_at_epoch": 604,
        "meta_bstar": -0.058978,
        "meta_mean_motion_dot": -0.02005317,
        "meta_mean_motion_ddot": 0,
        "tle_line1": "1 66561U 25268E   25361.50002315 -.02005317  00000+0 -58978-1 0  9997",
        "tle_line2": "2 66561  43.0006  34.8085 0000993 296.1778 245.2046 15.38005627  6048"
      },
      "geometry": {
        "type": "Point",
        "coordinates": [
          -52.814133274928885,
          -42.912010725412834
        ]
      }
    },
    {
      "type": "Feature",
      "properties": {
        "norad_id": 66562,
        "name": "STARLINK-35579",
        "group": "last-30-days",
        "lat": -41.74144653818627,
        "lon": -73.50181179813057,
        "alt_km": 460.7095924757923,
        "timestamp": "2025-12-27T18:38:02.201573+00:00",
        "meta_object_name": "STARLINK-35579",
        "meta_object_id": "2025-268F",
        "meta_epoch": "2025-12-27T12:00:02.000160",
        "meta_mean_motion": 15.37165919,
        "meta_eccentricity": 0.0001101,
        "meta_inclination": 43.0001,
        "meta_ra_of_asc_node": 34.8433,
        "meta_arg_of_pericenter": 300.1582,
        "meta_mean_anomaly": 226.7113,
        "meta_ephemeris_type": 0,
        "meta_classification_type": "U",
        "meta_norad_cat_id": 66562,
        "meta_element_set_no": 999,
        "meta_rev_at_epoch": 599,
        "meta_bstar": -0.060508,
        "meta_mean_motion_dot": -0.02001881,
        "meta_mean_motion_ddot": 0,
        "tle_line1": "1 66562U 25268F   25361.50002315 -.02001881  00000+0 -60508-1 0  9992",
        "tle_line2": "2 66562  43.0001  34.8433 0001101 300.1582 226.7113 15.37165919  5994"
      },
      "geometry": {
        "type": "Point",
        "coordinates": [
          -73.50181179813057,
          -41.74144653818627
        ]
      }
    },
    {
      "type": "Feature",
      "properties": {
        "norad_id": 66563,
        "name": "STARLINK-35437",
        "group": "last-30-days",
        "lat": -40.51008800142806,
        "lon": -33.27963127899994,
        "alt_km": 455.48745657413383,
        "timestamp": "2025-12-27T18:38:02.201587+00:00",
        "meta_object_name": "STARLINK-35437",
        "meta_object_id": "2025-268G",
        "meta_epoch": "2025-12-27T12:00:02.000160",
        "meta_mean_motion": 15.38849771,
        "meta_eccentricity": 0.0001013,
        "meta_inclination": 43.0011,
        "meta_ra_of_asc_node": 34.7743,
        "meta_arg_of_pericenter": 292.3967,
        "meta_mean_anomaly": 262.9367,
        "meta_ephemeris_type": 0,
        "meta_classification_type": "U",
        "meta_norad_cat_id": 66563,
        "meta_element_set_no": 999,
        "meta_rev_at_epoch": 604,
        "meta_bstar": -0.057928,
        "meta_mean_motion_dot": -0.02023055,
        "meta_mean_motion_ddot": 0,
        "tle_line1": "1 66563U 25268G   25361.50002315 -.02023055  00000+0 -57928-1 0  9992",
        "tle_line2": "2 66563  43.0011  34.7743 0001013 292.3967 262.9367 15.38849771  6046"
      },
      "geometry": {
        "type": "Point",
        "coordinates": [
          -33.27963127899994,
          -40.51008800142806
        ]
      }
    },
    {
      "type": "Feature",
      "properties": {
        "norad_id": 66564,
        "name": "STARLINK-35358",
        "group": "last-30-days",
        "lat": -35.37282461347107,
        "lon": -16.475255841156248,
        "alt_km": 452.7556429276392,
        "timestamp": "2025-12-27T18:38:02.201601+00:00",
        "meta_object_name": "STARLINK-35358",
        "meta_object_id": "2025-268H",
        "meta_epoch": "2025-12-27T12:00:02.000160",
        "meta_mean_motion": 15.39685938,
        "meta_eccentricity": 0.0001022,
        "meta_inclination": 43.0006,
        "meta_ra_of_asc_node": 34.7415,
        "meta_arg_of_pericenter": 290.6052,
        "meta_mean_anomaly": 278.1197,
        "meta_ephemeris_type": 0,
        "meta_classification_type": "U",
        "meta_norad_cat_id": 66564,
        "meta_element_set_no": 999,
        "meta_rev_at_epoch": 604,
        "meta_bstar": -0.056273,
        "meta_mean_motion_dot": -0.02020847,
        "meta_mean_motion_ddot": 0,
        "tle_line1": "1 66564U 25268H   25361.50002315 -.02020847  00000+0 -56273-1 0  9991",
        "tle_line2": "2 66564  43.0006  34.7415 0001022 290.6052 278.1197 15.39685938  6047"
      },
      "geometry": {
        "type": "Point",
        "coordinates": [
          -16.475255841156248,
          -35.37282461347107
        ]
      }
    },
    {
      "type": "Feature",
      "properties": {
        "norad_id": 66565,
        "name": "STARLINK-35893",
        "group": "last-30-days",
        "lat": -28.52449845461682,
        "lon": -2.561521837241531,
        "alt_km": 449.883006973826,
        "timestamp": "2025-12-27T18:38:02.201611+00:00",
        "meta_object_name": "STARLINK-35893",
        "meta_object_id": "2025-268J",
        "meta_epoch": "2025-12-27T12:00:02.000160",
        "meta_mean_motion": 15.40521215,
        "meta_eccentricity": 9.96e-05,
        "meta_inclination": 43,
        "meta_ra_of_asc_node": 34.7095,
        "meta_arg_of_pericenter": 296.286,
        "meta_mean_anomaly": 285.2719,
        "meta_ephemeris_type": 0,
        "meta_classification_type": "U",
        "meta_norad_cat_id": 66565,
        "meta_element_set_no": 999,
        "meta_rev_at_epoch": 599,
        "meta_bstar": -0.054517,
        "meta_mean_motion_dot": -0.02013954,
        "meta_mean_motion_ddot": 0,
        "tle_line1": "1 66565U 25268J   25361.50002315 -.02013954  00000+0 -54517-1 0  9992",
        "tle_line2": "2 66565  43.0000  34.7095 0000996 296.2860 285.2719 15.40521215  5995"
      },
      "geometry": {
        "type": "Point",
        "coordinates": [
          -2.561521837241531,
          -28.52449845461682
        ]
      }
    },
    {
      "type": "Feature",
      "properties": {
        "norad_id": 66566,
        "name": "STARLINK-35871",
        "group": "last-30-days",
        "lat": -23.261790379166655,
        "lon": 5.626290063121179,
        "alt_km": 448.0043029522112,
        "timestamp": "2025-12-27T18:38:02.201622+00:00",
        "meta_object_name": "STARLINK-35871",
        "meta_object_id": "2025-268K",
        "meta_epoch": "2025-12-27T12:00:02.000160",
        "meta_mean_motion": 15.41049768,
        "meta_eccentricity": 9.35e-05,
        "meta_inclination": 43.0013,
        "meta_ra_of_asc_node": 34.6893,
        "meta_arg_of_pericenter": 296.6031,
        "meta_mean_anomaly": 293.4954,
        "meta_ephemeris_type": 0,
        "meta_classification_type": "U",
        "meta_norad_cat_id": 66566,
        "meta_element_set_no": 999,
        "meta_rev_at_epoch": 599,
        "meta_bstar": -0.053359,
        "meta_mean_motion_dot": -0.02007222,
        "meta_mean_motion_ddot": 0,
        "tle_line1": "1 66566U 25268K   25361.50002315 -.02007222  00000+0 -53359-1 0  9997",
        "tle_line2": "2 66566  43.0013  34.6893 0000935 296.6031 293.4954 15.41049768  5993"
      },
      "geometry": {
        "type": "Point",
        "coordinates": [
          5.626290063121179,
          -23.261790379166655
        ]
      }
    },
    {
      "type": "Feature",
      "properties": {
        "norad_id": 66567,
        "name": "STARLINK-35825",
        "group": "last-30-days",
        "lat": -17.135469784774084,
        "lon": 13.75324977536661,
        "alt_km": 445.8534548745356,
        "timestamp": "2025-12-27T18:38:02.201635+00:00",
        "meta_object_name": "STARLINK-35825",
        "meta_object_id": "2025-268L",
        "meta_epoch": "2025-12-27T12:00:02.000160",
        "meta_mean_motion": 15.4164833,
        "meta_eccentricity": 7.72e-05,
        "meta_inclination": 43.0009,
        "meta_ra_of_asc_node": 34.6678,
        "meta_arg_of_pericenter": 294.9376,
        "meta_mean_anomaly": 304.3573,
        "meta_ephemeris_type": 0,
        "meta_classification_type": "U",
        "meta_norad_cat_id": 66567,
        "meta_element_set_no": 999,
        "meta_rev_at_epoch": 599,
        "meta_bstar": -0.051722,
        "meta_mean_motion_dot": -0.01987543,
        "meta_mean_motion_ddot": 0,
        "tle_line1": "1 66567U 25268L   25361.50002315 -.01987543  00000+0 -51722-1 0  9992",
        "tle_line2": "2 66567  43.0009  34.6678 0000772 294.9376 304.3573 15.41648330  5991"
      },
      "geometry": {
        "type": "Point",
        "coordinates": [
          13.75324977536661,
          -17.135469784774084
        ]
      }
    }
  ]
}